{
    "links": {
        "self": "http://www.neowsapp.com/rest/v1/neo/3592119?api_key=iIulBulltgU6a56xZRHN4H3l9WmuAYTsLGpBGhQ2"
    },
    "id": "3592119",
    "neo_reference_id": "3592119",
    "name": "(2012 AB3)",
    "designation": "2012 AB3",
    "nasa_jpl_url": "http://ssd.jpl.nasa.gov/sbdb.cgi?sstr=3592119",
    "absolute_magnitude_h": 24.1,
    "estimated_diameter": {
        "kilometers": {
            "estimated_diameter_min": 0.040230458,
            "estimated_diameter_max": 0.0899580388
        },
        "meters": {
            "estimated_diameter_min": 40.2304579834,
            "estimated_diameter_max": 89.9580388169
        },
        "miles": {
            "estimated_diameter_min": 0.0249980399,
            "estimated_diameter_max": 0.0558973165
        },
        "feet": {
            "estimated_diameter_min": 131.9896957704,
            "estimated_diameter_max": 295.1379320721
        }
    },
    "is_potentially_hazardous_asteroid": false,
    "close_approach_data": [
        {
            "close_approach_date": "2011-12-28",
            "close_approach_date_full": "2011-Dec-28 12:08",
            "epoch_date_close_approach": 1325074080000,
            "relative_velocity": {
                "kilometers_per_second": "11.0833202023",
                "kilometers_per_hour": "39899.9527284398",
                "miles_per_hour": "24792.2789606242"
            },
            "miss_distance": {
                "astronomical": "0.0409996307",
                "lunar": "15.9488563423",
                "kilometers": "6133457.423506609",
                "miles": "3811153.7174208442"
            },
            "orbiting_body": "Earth"
        }
    ],
    "orbital_data": {
        "orbit_id": "7",
        "orbit_determination_date": "2017-04-06 08:51:31",
        "first_observation_date": "2012-01-03",
        "last_observation_date": "2012-01-20",
        "data_arc_in_days": 17,
        "observations_used": 30,
        "orbit_uncertainty": "8",
        "minimum_orbit_intersection": ".0342046",
        "jupiter_tisserand_invariant": "3.210",
        "epoch_osculation": "2455935.5",
        "eccentricity": ".6178890246601362",
        "semi_major_axis": "2.424083578187625",
        "inclination": "7.801336388759276",
        "ascending_node_longitude": "112.7107597639588",
        "orbital_period": "1378.541393077071",
        "perihelion_distance": ".9262689403666206",
        "perihelion_argument": "310.9696048773224",
        "aphelion_distance": "3.92189821600863",
        "perihelion_time": "2455899.076287281932",
        "mean_anomaly": "9.511891804159553",
        "mean_motion": ".2611455860577654",
        "equinox": "J2000",
        "orbit_class": {
            "orbit_class_type": "APO",
            "orbit_class_description": "Near-Earth asteroid orbits which cross the Earth’s orbit similar to that of 1862 Apollo",
            "orbit_class_range": "a (semi-major axis) > 1.0 AU; q (perihelion) < 1.017 AU"
        }
    },
    "is_sentry_object": false
}